{"type":"FeatureCollection","features":[{"type":"Feature","properties":{},"geometry":{"type":"Polygon","coordinates":[[[-180.0,85.0],[180.0,85.0],[180.0,-85.0],[-180.0,-85.0],[-180.0,85.0]],[[133.25692,34.32994],[133.25754,34.33136],[133.25811,34.33161],[133.25803,34.33245],[133.25735,34.33257],[133.25684,34.33189],[133.25587,34.33149],[133.25578,34.3312],[133.25604,34.33095],[133.25567,34.32965],[133.25626,34.32938],[133.25692,34.32994]],[[133.29036,34.34951],[133.29163,34.34991],[133.29139,34.35012],[133.29024,34.34989],[133.29013,34.34967],[133.29036,34.34951]],[[133.26407,34.3324],[133.26458,34.33318],[133.26487,34.33278],[133.26463,34.33264],[133.26472,34.33232],[133.26533,34.33225],[133.26606,34.33259],[133.2654,34.33344],[133.2667,34.33359],[133.26748,34.3329],[133.26784,34.33285],[133.26862,34.33347],[133.26918,34.33336],[133.26935,34.33365],[133.26911,34.33391],[133.26983,34.33442],[133.27254,34.33528],[133.27449,34.33543],[133.27669,34.33525],[133.27729,34.335],[133.27705,34.3347],[133.27724,34.33447],[133.27785,34.33487],[133.27856,34.33461],[133.27885,34.33491],[133.27938,34.33493],[133.27973,34.33544],[133.28069,34.33607],[133.28192,34.33623],[133.2827,34.33703],[133.28511,34.33759],[133.28574,34.33799],[133.28637,34.33892],[133.28577,34.33934],[133.28615,34.33997],[133.28567,34.34049],[133.28647,34.34182],[133.28624,34.34253],[133.28663,34.34321],[133.28646,34.34362],[133.28596,34.34386],[133.28591,34.34444],[133.28635,34.34509],[133.28609,34.34553],[133.28644,34.34635],[133.28808,34.34673],[133.28788,34.34698],[133.28637,34.34679],[133.28677,34.34717],[133.28639,34.34776],[133.28748,34.34883],[133.28777,34.34958],[133.29055,34.35028],[133.29042,34.35052],[133.28937,34.35068],[133.28792,34.35036],[133.28776,34.35128],[133.28817,34.35147],[133.28845,34.35235],[133.28797,34.35377],[133.28839,34.35457],[133.28816,34.35474],[133.28746,34.35451],[133.28713,34.35495],[133.28803,34.35569],[133.28847,34.35581],[133.29024,34.35493],[133.29131,34.35411],[133.29212,34.35309],[133.29238,34.35076],[133.29162,34.35068],[133.29124,34.35031],[133.29175,34.35011],[133.29294,34.35021],[133.29394,34.3494],[133.29435,34.34852],[133.29442,34.34669],[133.29475,34.3462],[133.29524,34.34601],[133.29585,34.34452],[133.29705,34.3441],[133.29785,34.34333],[133.29986,34.34252],[133.30212,34.34205],[133.30476,34.34305],[133.30796,34.34488],[133.30901,34.34575],[133.31048,34.34636],[133.31082,34.34627],[133.31096,34.34698],[133.31153,34.34745],[133.31269,34.34798],[133.31475,34.34832],[133.31564,34.34871],[133.3171,34.35],[133.31862,34.35059],[133.31885,34.35109],[133.31957,34.35164],[133.32177,34.35247],[133.32181,34.35287],[133.32127,34.3529],[133.32111,34.35327],[133.32141,34.35339],[133.32274,34.35341],[133.32333,34.35378],[133.32492,34.35386],[133.32607,34.35421],[133.32741,34.35397],[133.32822,34.35496],[133.3294,34.35489],[133.32984,34.35515],[133.33244,34.35438],[133.33346,34.35473],[133.33401,34.3545],[133.3351,34.35472],[133.33535,34.35531],[133.33622,34.35542],[133.33666,34.35577],[133.33814,34.35616],[133.33847,34.35652],[133.33868,34.35835],[133.339,34.35827],[133.34044,34.35932],[133.3401,34.35959],[133.33883,34.35868],[133.33901,34.3591],[133.33867,34.35924],[133.3382,34.35898],[133.3378,34.35798],[133.33763,34.35801],[133.33764,34.35857],[133.33798,34.35878],[133.33946,34.36201],[133.33914,34.36251],[133.33975,34.36305],[133.34067,34.36273],[133.33948,34.35982],[133.33897,34.35942],[133.33926,34.35911],[133.33993,34.35957],[133.34086,34.36198],[133.34146,34.36273],[133.34113,34.36299],[133.34071,34.36251],[133.34099,34.3632],[133.34013,34.36355],[133.34005,34.36383],[133.34095,34.36563],[133.34104,34.36655],[133.34251,34.36877],[133.34276,34.37072],[133.34227,34.37125],[133.34179,34.37133],[133.34155,34.3711],[133.34158,34.37042],[133.34101,34.3697],[133.33972,34.36934],[133.33908,34.36974],[133.33679,34.36864],[133.33591,34.36854],[133.33488,34.36866],[133.33329,34.36923],[133.33334,34.37041],[133.33354,34.37088],[133.33426,34.37142],[133.33416,34.37168],[133.33272,34.37086],[133.33186,34.3707],[133.33159,34.37029],[133.3318,34.36854],[133.33157,34.3683],[133.33197,34.36793],[133.33136,34.36593],[133.33093,34.36557],[133.33023,34.36547],[133.32856,34.36463],[133.32809,34.36422],[133.32753,34.36477],[133.327,34.3646],[133.32694,34.36426],[133.32761,34.36377],[133.32706,34.36304],[133.32696,34.36232],[133.32636,34.36194],[133.32493,34.36022],[133.32441,34.36032],[133.32403,34.36141],[133.32448,34.36224],[133.32495,34.3623],[133.3259,34.36357],[133.32582,34.36386],[133.32539,34.36395],[133.32457,34.36298],[133.32562,34.36519],[133.32561,34.3658],[133.32518,34.36647],[133.32444,34.3666],[133.32379,34.36633],[133.32328,34.36551],[133.32116,34.36658],[133.32019,34.3675],[133.32017,34.36854],[133.31985,34.36884],[133.31922,34.37144],[133.31945,34.37199],[133.31928,34.37229],[133.31965,34.37246],[133.31954,34.37267],[133.31843,34.37307],[133.31495,34.3726],[133.31229,34.37131],[133.3098,34.37112],[133.30852,34.36993],[133.30745,34.36948],[133.30529,34.36935],[133.30472,34.3695],[133.30485,34.36987],[133.3045,34.36998],[133.30391,34.36893],[133.30147,34.3682],[133.29994,34.36635],[133.29882,34.36612],[133.29647,34.36485],[133.29515,34.36347],[133.29338,34.36226],[133.29251,34.36048],[133.29133,34.35971],[133.29115,34.35898],[133.2905,34.35852],[133.29066,34.35817],[133.29105,34.3582],[133.29033,34.35685],[133.28859,34.35658],[133.28846,34.35731],[133.28803,34.35742],[133.28823,34.35775],[133.28807,34.35798],[133.28627,34.35788],[133.28567,34.35818],[133.28542,34.35791],[133.28612,34.3575],[133.28606,34.35713],[133.2849,34.35722],[133.28456,34.35695],[133.28409,34.35694],[133.2829,34.35729],[133.283,34.35753],[133.285,34.35764],[133.28512,34.35797],[133.28333,34.35793],[133.28328,34.35826],[133.28288,34.35833],[133.28231,34.35795],[133.28214,34.35712],[133.2783,34.35587],[133.27432,34.35372],[133.27215,34.35298],[133.27117,34.35216],[133.27056,34.35089],[133.26965,34.35023],[133.26771,34.34991],[133.26683,34.35014],[133.26549,34.34905],[133.26464,34.34877],[133.26352,34.34789],[133.26268,34.34656],[133.26202,34.34598],[133.26165,34.34433],[133.26227,34.3438],[133.26281,34.3439],[133.26314,34.34427],[133.2641,34.34375],[133.26469,34.34392],[133.26544,34.34326],[133.26609,34.34188],[133.2657,34.3415],[133.26625,34.34129],[133.26632,34.34099],[133.26657,34.33815],[133.26573,34.33678],[133.26401,34.33584],[133.26381,34.33511],[133.26299,34.33399],[133.26215,34.33426],[133.26181,34.33383],[133.26218,34.33216],[133.26407,34.3324]],[[133.25656,34.41726],[133.25613,34.41792],[133.25592,34.41777],[133.25604,34.41744],[133.25446,34.41693],[133.25359,34.41878],[133.25314,34.41874],[133.2542,34.41648],[133.25656,34.41726]],[[133.25589,34.41837],[133.25581,34.41902],[133.25546,34.4191],[133.25557,34.41846],[133.25589,34.41837]],[[133.23512,34.44343],[133.23707,34.44074],[133.23748,34.44063],[133.23789,34.44092],[133.23863,34.44073],[133.23958,34.43584],[133.24444,34.42309],[133.25853,34.41825],[133.25725,34.41783],[133.2573,34.41749],[133.25915,34.41803],[133.27286,34.41332],[133.27384,34.41329],[133.27603,34.4123],[133.27636,34.41238],[133.27698,34.41325],[133.27738,34.41476],[133.27862,34.41431],[133.27968,34.41311],[133.28078,34.41241],[133.28346,34.41214],[133.28486,34.41217],[133.28568,34.41242],[133.28624,34.41143],[133.287,34.41102],[133.28877,34.41157],[133.28914,34.41144],[133.28982,34.41038],[133.2907,34.40987],[133.29138,34.40898],[133.29212,34.40867],[133.29222,34.40787],[133.29137,34.40755],[133.29123,34.4071],[133.29182,34.40648],[133.29194,34.40568],[133.2934,34.40413],[133.29435,34.40244],[133.29554,34.40195],[133.29626,34.40205],[133.29638,34.40149],[133.29571,34.40121],[133.2955,34.40048],[133.2962,34.39863],[133.29569,34.39834],[133.29498,34.3974],[133.295,34.39674],[133.29427,34.39623],[133.29375,34.39513],[133.29306,34.39461],[133.29233,34.39445],[133.29152,34.39303],[133.29017,34.39307],[133.28899,34.39157],[133.28777,34.39181],[133.28749,34.39169],[133.2874,34.39035],[133.28624,34.38979],[133.28514,34.38803],[133.28563,34.38722],[133.28549,34.38553],[133.28619,34.38557],[133.28644,34.3869],[133.28658,34.38645],[133.28764,34.38615],[133.28754,34.38585],[133.28836,34.38404],[133.28887,34.38406],[133.28908,34.3843],[133.28858,34.38554],[133.28939,34.38511],[133.29021,34.38311],[133.29093,34.38323],[133.29074,34.38388],[133.29244,34.38256],[133.29299,34.38291],[133.29371,34.38262],[133.29395,34.38292],[133.29363,34.38323],[133.2942,34.38305],[133.29469,34.38369],[133.29506,34.38361],[133.29563,34.38286],[133.29732,34.38287],[133.29728,34.38323],[133.29587,34.38324],[133.29545,34.38384],[133.29575,34.38414],[133.29713,34.38394],[133.29726,34.38427],[133.29685,34.38453],[133.29688,34.38476],[133.29756,34.38404],[133.29792,34.38334],[133.2984,34.38324],[133.29882,34.38276],[133.30041,34.38297],[133.30096,34.38283],[133.30152,34.38301],[133.3017,34.38334],[133.301,34.38507],[133.30055,34.38559],[133.30268,34.38575],[133.30288,34.38628],[133.30354,34.38635],[133.30362,34.38588],[133.30445,34.38536],[133.30493,34.38548],[133.30507,34.38629],[133.30643,34.38556],[133.30659,34.38583],[133.30602,34.38637],[133.30624,34.3868],[133.30733,34.386],[133.30661,34.38443],[133.30671,34.38415],[133.30736,34.3841],[133.30818,34.38543],[133.30851,34.38518],[133.30762,34.38367],[133.30772,34.38335],[133.30834,34.38328],[133.30925,34.38462],[133.30957,34.38425],[133.3086,34.38272],[133.30857,34.38211],[133.30904,34.38206],[133.3101,34.38363],[133.31074,34.38359],[133.31099,34.38312],[133.3115,34.38312],[133.31172,34.38274],[133.31454,34.3807],[133.31491,34.38071],[133.31551,34.38118],[133.3161,34.3807],[133.3165,34.38079],[133.31826,34.38032],[133.31838,34.37993],[133.31898,34.37978],[133.32076,34.37781],[133.32126,34.37693],[133.32273,34.37617],[133.32383,34.37634],[133.32504,34.37689],[133.32454,34.37875],[133.32497,34.37878],[133.32501,34.37935],[133.32564,34.3792],[133.32851,34.3798],[133.32896,34.37977],[133.32946,34.3792],[133.33028,34.37933],[133.33108,34.37913],[133.33135,34.37943],[133.33138,34.37929],[133.33118,34.37898],[133.33129,34.37874],[133.33268,34.37815],[133.33324,34.37866],[133.33352,34.37851],[133.33387,34.37866],[133.33405,34.37953],[133.33467,34.37985],[133.33464,34.38053],[133.33524,34.37983],[133.33567,34.38001],[133.33659,34.37957],[133.33686,34.37978],[133.33745,34.37944],[133.33864,34.37937],[133.3403,34.37855],[133.34074,34.37805],[133.34184,34.37782],[133.34213,34.37803],[133.34372,34.37812],[133.34372,34.37732],[133.34324,34.37746],[133.34319,34.37681],[133.34362,34.37685],[133.34516,34.37618],[133.34611,34.37656],[133.34673,34.37576],[133.3473,34.37365],[133.34777,34.37287],[133.34743,34.37247],[133.34801,34.37112],[133.34765,34.36986],[133.3473,34.36971],[133.3473,34.36898],[133.34653,34.36848],[133.34635,34.36768],[133.34557,34.36657],[133.34573,34.36541],[133.34665,34.3652],[133.34899,34.36571],[133.35074,34.36584],[133.35112,34.36557],[133.3524,34.36591],[133.35324,34.36635],[133.35341,34.36668],[133.35416,34.3669],[133.35419,34.36749],[133.35564,34.3678],[133.35749,34.36903],[133.35852,34.36914],[133.36012,34.3686],[133.36054,34.3684],[133.36035,34.36805],[133.36057,34.36788],[133.36106,34.36836],[133.36212,34.36844],[133.36263,34.3693],[133.36312,34.36943],[133.36532,34.36904],[133.36562,34.36872],[133.36725,34.36853],[133.36762,34.36909],[133.36841,34.36963],[133.36841,34.37006],[133.36899,34.37071],[133.36914,34.37127],[133.36954,34.37154],[133.36967,34.37199],[133.37052,34.37259],[133.37129,34.3741],[133.37193,34.37442],[133.37349,34.37466],[133.3745,34.3757],[133.37687,34.37582],[133.37748,34.37565],[133.37782,34.37605],[133.37844,34.3761],[133.37943,34.37519],[133.38002,34.37531],[133.3805,34.37509],[133.3809,34.37543],[133.38144,34.37486],[133.38258,34.37541],[133.38246,34.37587],[133.38116,34.37599],[133.38081,34.37643],[133.3793,34.37627],[133.37838,34.37683],[133.37832,34.37757],[133.3799,34.37917],[133.37935,34.37952],[133.37874,34.37951],[133.37813,34.37981],[133.37805,34.38047],[133.37772,34.38063],[133.37781,34.38112],[133.37853,34.38197],[133.37946,34.38238],[133.37954,34.38194],[133.37998,34.38183],[133.38023,34.38227],[133.38103,34.38219],[133.38144,34.38278],[133.38208,34.38202],[133.38144,34.38151],[133.38187,34.38092],[133.38105,34.38049],[133.38113,34.38006],[133.38149,34.38003],[133.38263,34.38076],[133.38382,34.38106],[133.38494,34.38433],[133.3838,34.38697],[133.38441,34.38788],[133.38426,34.38823],[133.38501,34.3881],[133.38518,34.38834],[133.38452,34.38863],[133.38413,34.38839],[133.38304,34.38951],[133.3833,34.38979],[133.38225,34.39098],[133.38162,34.39088],[133.38112,34.39159],[133.38047,34.39495],[133.38128,34.39497],[133.38154,34.39519],[133.38147,34.39712],[133.38274,34.40507],[133.38291,34.406],[133.38349,34.40695],[133.38237,34.40765],[133.383,34.40904],[133.38395,34.41249],[133.38439,34.41242],[133.38463,34.41267],[133.38421,34.41302],[133.38518,34.41844],[133.3871,34.41867],[133.38785,34.42071],[133.38742,34.42085],[133.38712,34.42007],[133.38704,34.42064],[133.38741,34.42101],[133.39031,34.42162],[133.39062,34.42189],[133.391,34.42156],[133.39156,34.42173],[133.39194,34.42283],[133.39371,34.42516],[133.39448,34.42576],[133.39538,34.4258],[133.39646,34.42667],[133.39744,34.42666],[133.39821,34.42713],[133.39905,34.42707],[133.40023,34.42751],[133.4013,34.42733],[133.40292,34.42803],[133.40322,34.428],[133.40346,34.42762],[133.40513,34.42725],[133.40558,34.42748],[133.40568,34.42812],[133.40618,34.42831],[133.40734,34.42794],[133.40796,34.42827],[133.40789,34.42901],[133.40832,34.42973],[133.40804,34.43012],[133.40808,34.43167],[133.40999,34.43357],[133.40671,34.43633],[133.41072,34.43357],[133.41335,34.4357],[133.43093,34.42407],[133.43081,34.42366],[133.431,34.42344],[133.44924,34.42311],[133.44955,34.42328],[133.44742,34.48068],[133.44671,34.48127],[133.44702,34.48218],[133.44614,34.48322],[133.44686,34.48429],[133.44908,34.48549],[133.44925,34.48587],[133.44909,34.48693],[133.44866,34.48775],[133.44882,34.48827],[133.45152,34.49025],[133.45132,34.49078],[133.45165,34.49183],[133.45275,34.49211],[133.45466,34.49321],[133.4552,34.49426],[133.45574,34.4946],[133.4565,34.49558],[133.45654,34.49625],[133.45588,34.4977],[133.45678,34.49989],[133.456,34.50204],[133.45642,34.50314],[133.45549,34.50449],[133.4557,34.50508],[133.45552,34.50575],[133.45423,34.50614],[133.45313,34.50698],[133.45057,34.50698],[133.44929,34.50623],[133.44794,34.50636],[133.44694,34.50572],[133.4456,34.50615],[133.44584,34.50646],[133.44538,34.50654],[133.44576,34.50826],[133.44555,34.50976],[133.44687,34.51047],[133.4469,34.51182],[133.44744,34.5121],[133.44817,34.51193],[133.44916,34.51114],[133.45037,34.51134],[133.45059,34.51219],[133.44938,34.51362],[133.44908,34.51464],[133.44829,34.51559],[133.44878,34.5171],[133.44791,34.51869],[133.4475,34.52013],[133.4477,34.52061],[133.44857,34.52088],[133.44921,34.52137],[133.44936,34.52241],[133.4503,34.52396],[133.45034,34.52471],[133.45091,34.52516],[133.45124,34.52606],[133.45217,34.52703],[133.45232,34.5283],[133.45401,34.5299],[133.45427,34.53073],[133.45473,34.53097],[133.45388,34.53262],[133.45359,34.53443],[133.4538,34.5353],[133.45311,34.53589],[133.45131,34.53875],[133.45077,34.53892],[133.44993,34.53877],[133.44911,34.53967],[133.44985,34.54072],[133.44953,34.54176],[133.44983,34.5428],[133.44946,34.54341],[133.44975,34.54439],[133.44944,34.54543],[133.44807,34.5462],[133.44763,34.54764],[133.44809,34.54857],[133.44789,34.54906],[133.44719,34.54972],[133.44637,34.54993],[133.44703,34.55068],[133.44702,34.55146],[133.4457,34.55217],[133.4465,34.55254],[133.44686,34.55323],[133.44669,34.55442],[133.44613,34.55524],[133.44639,34.55645],[133.44589,34.55684],[133.44553,34.55675],[133.44371,34.55733],[133.44389,34.5585],[133.44371,34.55878],[133.44211,34.55887],[133.44076,34.55964],[133.43956,34.56117],[133.43872,34.56185],[133.43893,34.56227],[133.43881,34.5628],[133.43763,34.56321],[133.43733,34.56392],[133.43617,34.56506],[133.43563,34.56602],[133.43511,34.56625],[133.43424,34.56608],[133.43273,34.56675],[133.43171,34.56668],[133.43114,34.56757],[133.43016,34.56768],[133.4295,34.56816],[133.42968,34.56838],[133.4295,34.56878],[133.42866,34.56879],[133.42697,34.56938],[133.42739,34.57042],[133.42803,34.57122],[133.42786,34.57292],[133.42721,34.57425],[133.42605,34.57453],[133.42331,34.57933],[133.42324,34.58071],[133.4225,34.58323],[133.42315,34.58413],[133.4241,34.58433],[133.42442,34.58477],[133.42331,34.58635],[133.42234,34.58695],[133.4207,34.58742],[133.41647,34.58635],[133.41476,34.58769],[133.41399,34.58741],[133.41332,34.58685],[133.41315,34.58927],[133.41227,34.59006],[133.40907,34.59053],[133.40836,34.59038],[133.4073,34.58974],[133.40598,34.58957],[133.40557,34.59098],[133.40417,34.59145],[133.40358,34.59223],[133.4021,34.59217],[133.40044,34.59357],[133.40016,34.59439],[133.39782,34.59532],[133.39915,34.59797],[133.39877,34.59881],[133.39739,34.59998],[133.39705,34.60105],[133.39717,34.60241],[133.39645,34.60337],[133.396,34.6057],[133.39511,34.60629],[133.39453,34.60772],[133.39267,34.60831],[133.39276,34.60886],[133.3935,34.60976],[133.39308,34.61109],[133.39348,34.61209],[133.3925,34.61296],[133.3907,34.61312],[133.39049,34.61382],[133.38939,34.61402],[133.38892,34.61556],[133.38793,34.61574],[133.386,34.61691],[133.38554,34.61815],[133.38581,34.61944],[133.38474,34.62017],[133.38468,34.62137],[133.38416,34.62223],[133.38478,34.62293],[133.38502,34.62484],[133.38677,34.62547],[133.38748,34.62618],[133.38856,34.62675],[133.38903,34.62735],[133.38885,34.62839],[133.38911,34.6288],[133.39136,34.63059],[133.392,34.63074],[133.39234,34.63123],[133.39156,34.63283],[133.39003,34.63356],[133.38952,34.63448],[133.38837,34.63501],[133.3883,34.63588],[133.38752,34.63628],[133.38795,34.63707],[133.38782,34.63879],[133.38907,34.63933],[133.38937,34.63974],[133.38903,34.64053],[133.38803,34.64102],[133.38844,34.64232],[133.3888,34.64314],[133.39029,34.64314],[133.39093,34.6437],[133.39111,34.64444],[133.39182,34.64541],[133.39153,34.64658],[133.39204,34.64882],[133.39306,34.64955],[133.39502,34.64956],[133.3967,34.65193],[133.39709,34.6531],[133.39677,34.65403],[133.39701,34.65485],[133.39673,34.65578],[133.39778,34.65649],[133.39832,34.65723],[133.39851,34.65783],[133.39834,34.65845],[133.39981,34.65912],[133.40043,34.65977],[133.40056,34.66043],[133.40018,34.66099],[133.40036,34.66182],[133.40123,34.66285],[133.40182,34.66461],[133.40244,34.66475],[133.4027,34.66611],[133.40309,34.66676],[133.40319,34.66878],[133.40279,34.67008],[133.40372,34.67188],[133.403,34.67348],[133.402,34.6742],[133.40039,34.67488],[133.39831,34.67552],[133.39642,34.67568],[133.39496,34.67464],[133.3946,34.67413],[133.39274,34.67595],[133.39184,34.67601],[133.39097,34.67541],[133.38998,34.6765],[133.38768,34.67727],[133.38589,34.67748],[133.38511,34.67972],[133.38411,34.6801],[133.38325,34.68013],[133.38303,34.68034],[133.38388,34.68133],[133.38443,34.68133],[133.38481,34.68166],[133.38538,34.68354],[133.38652,34.68352],[133.38708,34.68374],[133.38691,34.68536],[133.38661,34.68585],[133.38516,34.6864],[133.38473,34.68686],[133.38377,34.68803],[133.38381,34.68867],[133.38321,34.69022],[133.38265,34.69056],[133.38098,34.69244],[133.38008,34.69268],[133.37865,34.69259],[133.37796,34.69295],[133.37622,34.69473],[133.37459,34.69503],[133.37443,34.69552],[133.37496,34.69719],[133.3746,34.69783],[133.37435,34.69946],[133.37514,34.7008],[133.37316,34.70318],[133.37268,34.70518],[133.3736,34.70592],[133.37393,34.70735],[133.37359,34.70742],[133.37325,34.70811],[133.3715,34.70936],[133.3702,34.70971],[133.37049,34.7108],[133.37113,34.71145],[133.37118,34.712],[133.37096,34.71219],[133.36753,34.71142],[133.3656,34.71043],[133.3618,34.71251],[133.35913,34.71177],[133.35674,34.71231],[133.35583,34.71205],[133.35481,34.71234],[133.35433,34.71208],[133.35422,34.71141],[133.35498,34.71051],[133.35563,34.71038],[133.3566,34.71084],[133.35754,34.7103],[133.35823,34.70957],[133.35977,34.70909],[133.35962,34.7085],[133.36048,34.70772],[133.36095,34.70692],[133.3618,34.70639],[133.36245,34.7046],[133.36366,34.70363],[133.36435,34.70262],[133.36479,34.70128],[133.36609,34.70016],[133.36692,34.69807],[133.36789,34.69708],[133.36827,34.69531],[133.36701,34.69548],[133.36652,34.69655],[133.36568,34.69661],[133.36489,34.69568],[133.36471,34.69398],[133.36518,34.69357],[133.36663,34.6938],[133.36646,34.69195],[133.36673,34.69164],[133.36782,34.69126],[133.36788,34.69082],[133.36543,34.69098],[133.36494,34.69071],[133.36465,34.69003],[133.36356,34.68909],[133.36309,34.68926],[133.36182,34.68904],[133.36124,34.68998],[133.36065,34.68981],[133.35999,34.69003],[133.35661,34.68985],[133.35589,34.68887],[133.35523,34.68725],[133.35424,34.68682],[133.35251,34.68668],[133.35203,34.68575],[133.35198,34.68447],[133.35025,34.68404],[133.35021,34.68366],[133.34906,34.68361],[133.34849,34.68318],[133.34779,34.683],[133.34623,34.68188],[133.34577,34.68041],[133.34472,34.67848],[133.34217,34.67902],[133.34173,34.67986],[133.3398,34.68066],[133.33862,34.68037],[133.33775,34.67985],[133.33785,34.67932],[133.33737,34.67844],[133.33606,34.67745],[133.33592,34.6762],[133.33683,34.67544],[133.33753,34.67417],[133.33806,34.67391],[133.33897,34.67179],[133.33952,34.67122],[133.33946,34.66928],[133.33732,34.66865],[133.33619,34.66794],[133.33518,34.66777],[133.33441,34.66718],[133.33344,34.66713],[133.33151,34.66578],[133.33147,34.66551],[133.33182,34.66527],[133.33313,34.66526],[133.33382,34.66449],[133.33414,34.66289],[133.33403,34.66213],[133.3316,34.66169],[133.32908,34.66088],[133.32758,34.65985],[133.32722,34.65915],[133.32634,34.65906],[133.32595,34.65882],[133.32464,34.65716],[133.32376,34.65663],[133.3233,34.65705],[133.32215,34.65631],[133.32176,34.65666],[133.32042,34.6569],[133.3193,34.65651],[133.3196,34.65624],[133.31878,34.65517],[133.3187,34.65472],[133.31911,34.65402],[133.31898,34.65335],[133.31938,34.65292],[133.31906,34.65263],[133.31928,34.6505],[133.31903,34.65022],[133.31792,34.6501],[133.31771,34.64991],[133.31767,34.64879],[133.31793,34.64796],[133.3169,34.64551],[133.31716,34.64405],[133.31653,34.64339],[133.31665,34.64293],[133.31764,34.64234],[133.31772,34.64129],[133.3171,34.64062],[133.31754,34.63975],[133.31684,34.63901],[133.31567,34.63877],[133.31511,34.63744],[133.31439,34.63742],[133.31383,34.63683],[133.31305,34.63738],[133.31228,34.63734],[133.31221,34.63791],[133.31176,34.63828],[133.31116,34.63829],[133.31029,34.6379],[133.3098,34.63806],[133.30967,34.63849],[133.30903,34.63891],[133.3087,34.63968],[133.3073,34.64073],[133.30497,34.64386],[133.30483,34.64497],[133.30542,34.64648],[133.30472,34.64818],[133.30438,34.64848],[133.30324,34.64823],[133.30188,34.64674],[133.30091,34.64611],[133.30057,34.64637],[133.29956,34.64639],[133.29925,34.6468],[133.29888,34.64682],[133.29687,34.64552],[133.29658,34.64508],[133.2966,34.64448],[133.29629,34.64438],[133.29549,34.64433],[133.29507,34.64515],[133.29447,34.64553],[133.29136,34.64521],[133.29092,34.64602],[133.29064,34.64589],[133.29007,34.64698],[133.2899,34.65005],[133.2901,34.65111],[133.29077,34.65175],[133.29103,34.65309],[133.29146,34.65358],[133.29127,34.65422],[133.29149,34.6556],[133.29212,34.65729],[133.29164,34.65862],[133.29214,34.65982],[133.29186,34.66009],[133.29089,34.66031],[133.29128,34.66264],[133.29117,34.66322],[133.29078,34.66375],[133.28986,34.66396],[133.28984,34.66469],[133.28951,34.66519],[133.28901,34.66541],[133.2898,34.66663],[133.28955,34.66756],[133.28896,34.66797],[133.28814,34.66806],[133.28816,34.66892],[133.28684,34.6694],[133.28553,34.66923],[133.28462,34.66796],[133.28432,34.66647],[133.28516,34.6638],[133.28513,34.66315],[133.28479,34.66182],[133.28432,34.66119],[133.28435,34.66073],[133.28368,34.66005],[133.28325,34.66124],[133.28236,34.66178],[133.28119,34.66422],[133.28042,34.66469],[133.27885,34.66477],[133.27613,34.66638],[133.27503,34.66658],[133.27437,34.66577],[133.27265,34.66564],[133.27163,34.66626],[133.26989,34.66637],[133.26836,34.6653],[133.26784,34.66468],[133.26667,34.6644],[133.26531,34.66463],[133.2648,34.66449],[133.26467,34.66408],[133.2651,34.66363],[133.26446,34.66351],[133.26421,34.66317],[133.26414,34.66251],[133.26471,34.66218],[133.26429,34.66149],[133.26445,34.66012],[133.26374,34.65792],[133.26272,34.65785],[133.26179,34.65715],[133.26167,34.65649],[133.26231,34.65611],[133.26253,34.65539],[133.26132,34.65479],[133.26059,34.65414],[133.26065,34.6534],[133.25983,34.65214],[133.26005,34.65164],[133.25943,34.65122],[133.25948,34.65065],[133.25982,34.65025],[133.26032,34.65015],[133.26087,34.65044],[133.26085,34.65028],[133.25964,34.64953],[133.25877,34.65016],[133.25872,34.65044],[133.25827,34.65032],[133.25797,34.65066],[133.25747,34.65062],[133.25707,34.65226],[133.2548,34.65292],[133.25422,34.65223],[133.25401,34.65114],[133.25255,34.64797],[133.25083,34.6471],[133.24983,34.64695],[133.24872,34.64756],[133.24763,34.6473],[133.24652,34.64741],[133.24612,34.64697],[133.24449,34.64648],[133.24381,34.64554],[133.24388,34.64421],[133.24283,34.6432],[133.24085,34.64338],[133.24049,34.64319],[133.2409,34.64198],[133.24049,34.64155],[133.23919,34.64115],[133.23689,34.64182],[133.23558,34.64179],[133.23551,34.64138],[133.23613,34.63964],[133.23513,34.63823],[133.23507,34.63635],[133.23374,34.63546],[133.23306,34.63458],[133.23052,34.63342],[133.22969,34.6335],[133.2294,34.63333],[133.22916,34.63266],[133.22925,34.63155],[133.23054,34.63012],[133.23241,34.62936],[133.233,34.62714],[133.23332,34.62697],[133.2339,34.62719],[133.23617,34.62198],[133.23619,34.62136],[133.23511,34.61939],[133.23525,34.61798],[133.23331,34.61664],[133.23195,34.61392],[133.23303,34.61338],[133.23406,34.61234],[133.23434,34.6117],[133.23438,34.60872],[133.23645,34.6078],[133.23604,34.60622],[133.23634,34.60549],[133.23672,34.60514],[133.23777,34.60508],[133.23797,34.60474],[133.23699,34.60386],[133.23727,34.60259],[133.23668,34.60147],[133.23782,34.60052],[133.23712,34.59918],[133.23825,34.59861],[133.24018,34.59883],[133.24089,34.59868],[133.24162,34.59743],[133.24373,34.59636],[133.24461,34.59619],[133.24606,34.59517],[133.24688,34.59411],[133.24759,34.59388],[133.24779,34.59284],[133.24831,34.59216],[133.24976,34.59149],[133.24987,34.59037],[133.25072,34.58885],[133.2517,34.58863],[133.25394,34.58722],[133.25471,34.58714],[133.25524,34.58682],[133.25645,34.58702],[133.25543,34.58429],[133.25625,34.58349],[133.25653,34.58257],[133.25763,34.58091],[133.25867,34.58026],[133.26051,34.58017],[133.26176,34.57884],[133.26313,34.57837],[133.26367,34.577],[133.26444,34.57639],[133.26596,34.57613],[133.2655,34.57373],[133.26675,34.57271],[133.26657,34.57185],[133.2668,34.57133],[133.26618,34.56993],[133.26507,34.56934],[133.26443,34.56839],[133.26359,34.56815],[133.26232,34.56743],[133.2622,34.56715],[133.26269,34.56621],[133.26384,34.56558],[133.26406,34.56445],[133.26459,34.56407],[133.26491,34.56284],[133.26481,34.56174],[133.26538,34.56118],[133.26637,34.56073],[133.26674,34.56025],[133.2677,34.56006],[133.26811,34.5597],[133.26803,34.55882],[133.26884,34.55798],[133.26869,34.55715],[133.26973,34.55589],[133.26804,34.55247],[133.26377,34.55151],[133.26307,34.5498],[133.26284,34.54842],[133.26192,34.54844],[133.26117,34.54814],[133.26018,34.5482],[133.25935,34.54793],[133.25853,34.54823],[133.25744,34.54806],[133.25709,34.54741],[133.25623,34.54727],[133.25518,34.54644],[133.25431,34.54647],[133.25261,34.54589],[133.25235,34.54541],[133.25129,34.54616],[133.2508,34.5461],[133.24981,34.54525],[133.24984,34.54469],[133.24635,34.54051],[133.24637,34.53922],[133.24613,34.53853],[133.24504,34.53814],[133.24464,34.53778],[133.24461,34.53742],[133.24404,34.53703],[133.2434,34.53693],[133.24301,34.53632],[133.24177,34.53589],[133.24066,34.53655],[133.23971,34.53659],[133.23922,34.53599],[133.23954,34.53542],[133.23912,34.5349],[133.23715,34.5347],[133.23624,34.53328],[133.23506,34.53264],[133.23581,34.53136],[133.23449,34.52998],[133.23461,34.52948],[133.23438,34.52922],[133.23316,34.52914],[133.23236,34.52834],[133.23109,34.52843],[133.22997,34.52765],[133.22876,34.52801],[133.22722,34.52755],[133.22566,34.52871],[133.22511,34.52984],[133.22413,34.53089],[133.2234,34.53114],[133.22278,34.53176],[133.22111,34.53184],[133.22121,34.53015],[133.21972,34.5275],[133.21994,34.52696],[133.21935,34.52571],[133.21871,34.52529],[133.21868,34.52399],[133.21814,34.52396],[133.21752,34.52319],[133.21549,34.52199],[133.21385,34.52175],[133.21291,34.5202],[133.21099,34.51982],[133.21107,34.51929],[133.21072,34.51872],[133.21128,34.5181],[133.21109,34.51768],[133.21153,34.51729],[133.2115,34.51627],[133.21178,34.51603],[133.21133,34.5152],[133.2117,34.51457],[133.21142,34.51359],[133.21268,34.51273],[133.21353,34.51131],[133.21416,34.51084],[133.2142,34.5104],[133.21368,34.50992],[133.21354,34.50908],[133.21458,34.50824],[133.21602,34.50805],[133.21725,34.50825],[133.21785,34.50859],[133.21886,34.50823],[133.21952,34.50884],[133.22039,34.50891],[133.22104,34.50953],[133.2227,34.50974],[133.22596,34.51172],[133.22684,34.51266],[133.22702,34.51358],[133.22812,34.51415],[133.22931,34.51355],[133.23029,34.51412],[133.23488,34.51402],[133.23607,34.51299],[133.23703,34.5116],[133.23903,34.51076],[133.23926,34.50936],[133.23866,34.50872],[133.23902,34.50784],[133.23763,34.50756],[133.23733,34.50698],[133.23735,34.506],[133.23771,34.5055],[133.23848,34.50504],[133.23855,34.50435],[133.23986,34.5025],[133.23837,34.50301],[133.23681,34.50222],[133.23619,34.50219],[133.23599,34.50152],[133.23526,34.50098],[133.23537,34.50041],[133.23454,34.49996],[133.23398,34.50011],[133.23314,34.49999],[133.23208,34.49927],[133.23269,34.49838],[133.23254,34.49737],[133.23357,34.49621],[133.23378,34.49428],[133.23439,34.49352],[133.23451,34.49278],[133.235,34.49235],[133.23428,34.49207],[133.23276,34.49066],[133.23107,34.48996],[133.23098,34.4881],[133.22996,34.48639],[133.22983,34.4853],[133.22918,34.48513],[133.22891,34.48572],[133.22684,34.48594],[133.22632,34.48569],[133.22582,34.48461],[133.2262,34.48377],[133.22724,34.48326],[133.22768,34.48196],[133.2274,34.48097],[133.22814,34.48005],[133.22793,34.47922],[133.22823,34.4784],[133.22805,34.47686],[133.22728,34.47668],[133.22638,34.47612],[133.2259,34.47487],[133.22492,34.4746],[133.22314,34.47471],[133.2218,34.47395],[133.2205,34.47397],[133.21981,34.47549],[133.21885,34.47605],[133.21793,34.47629],[133.21748,34.47612],[133.217,34.47533],[133.21591,34.47466],[133.21549,34.47414],[133.21301,34.47385],[133.21089,34.47224],[133.21019,34.4714],[133.21035,34.47041],[133.21099,34.46974],[133.21127,34.46888],[133.21233,34.46819],[133.21322,34.46641],[133.21625,34.46286],[133.21654,34.46279],[133.21892,34.4636],[133.21986,34.46371],[133.21958,34.4628],[133.22006,34.46169],[133.22071,34.46145],[133.22089,34.46093],[133.22245,34.4592],[133.22352,34.45904],[133.22405,34.45866],[133.22664,34.45849],[133.22802,34.4569],[133.22881,34.45652],[133.2292,34.4553],[133.232,34.45537],[133.23254,34.45655],[133.23275,34.45783],[133.23499,34.45918],[133.23628,34.45731],[133.23634,34.45646],[133.23661,34.45609],[133.23769,34.45595],[133.23982,34.4549],[133.24028,34.454],[133.23962,34.45316],[133.23904,34.45136],[133.23931,34.45048],[133.23826,34.44987],[133.23788,34.44916],[133.23826,34.44856],[133.23743,34.44857],[133.23723,34.44821],[133.23764,34.44786],[133.23695,34.44781],[133.23671,34.44727],[133.23442,34.44729],[133.23162,34.44805],[133.22959,34.45088],[133.22916,34.45206],[133.22728,34.45279],[133.22567,34.45183],[133.22585,34.45131],[133.22775,34.4498],[133.22554,34.44888],[133.2254,34.44807],[133.22612,34.44768],[133.22605,34.44652],[133.22683,34.44564],[133.22694,34.44516],[133.22769,34.44507],[133.2282,34.44336],[133.22928,34.44321],[133.23055,34.4436],[133.23114,34.44415],[133.23211,34.44437],[133.23401,34.44349],[133.23512,34.44343]],[[133.37465,34.36831],[133.37508,34.36853],[133.37582,34.36958],[133.37545,34.36999],[133.37491,34.36997],[133.37383,34.36908],[133.37413,34.36838],[133.37465,34.36831]],[[133.33617,34.36967],[133.3366,34.36984],[133.33728,34.36948],[133.3382,34.36978],[133.33905,34.37076],[133.33864,34.37151],[133.33783,34.37181],[133.33659,34.37142],[133.33603,34.37154],[133.33532,34.37067],[133.33586,34.36979],[133.33617,34.36967]],[[133.3829,34.37909],[133.38259,34.37922],[133.3811,34.37854],[133.37968,34.37854],[133.3798,34.37826],[133.38083,34.3781],[133.38283,34.3788],[133.3829,34.37909]],[[133.38542,34.38477],[133.38558,34.38496],[133.38524,34.38748],[133.38476,34.38755],[133.38504,34.38489],[133.38542,34.38477]],[[133.38506,34.40807],[133.38492,34.40833],[133.38462,34.40826],[133.38298,34.40563],[133.38315,34.40535],[133.38341,34.40544],[133.38506,34.40807]],[[133.46216,34.31474],[133.46102,34.31496],[133.46001,34.31602],[133.45896,34.31651],[133.45855,34.31638],[133.45823,34.31588],[133.45764,34.31581],[133.45728,34.31551],[133.45727,34.31472],[133.45757,34.31426],[133.45821,34.31405],[133.45835,34.31346],[133.45998,34.312],[133.4602,34.31043],[133.46088,34.30937],[133.46165,34.30939],[133.46299,34.3107],[133.46382,34.31197],[133.46567,34.31238],[133.46723,34.31186],[133.4681,34.31015],[133.46904,34.30985],[133.47013,34.31003],[133.47055,34.31079],[133.46974,34.31272],[133.47085,34.31455],[133.47086,34.31546],[133.46998,34.31597],[133.4691,34.31574],[133.46871,34.31584],[133.46799,34.31625],[133.46776,34.31677],[133.46734,34.31703],[133.46453,34.3168],[133.46284,34.31582],[133.46284,34.31497],[133.46216,34.31474]],[[133.43866,34.33725],[133.43895,34.33784],[133.43867,34.33802],[133.43838,34.33743],[133.43866,34.33725]],[[133.42734,34.34774],[133.42931,34.34761],[133.42792,34.34618],[133.42735,34.34452],[133.42845,34.34316],[133.42886,34.34162],[133.42984,34.34118],[133.4296,34.34003],[133.43023,34.33889],[133.43208,34.33896],[133.43223,34.33864],[133.43299,34.33828],[133.43401,34.33839],[133.43469,34.33765],[133.43698,34.33771],[133.43782,34.33741],[133.43837,34.33753],[133.43813,34.33789],[133.43846,34.33849],[133.43878,34.33803],[133.43958,34.33758],[133.44048,34.33763],[133.44152,34.33702],[133.44232,34.33707],[133.44269,34.33673],[133.44412,34.33663],[133.44589,34.33534],[133.44663,34.33568],[133.44728,34.3372],[133.44817,34.33719],[133.44859,34.33741],[133.44891,34.338],[133.44864,34.33863],[133.44904,34.33949],[133.44932,34.3396],[133.45168,34.33939],[133.4531,34.33833],[133.45338,34.33785],[133.45438,34.3374],[133.45485,34.33758],[133.45493,34.33827],[133.45448,34.33858],[133.45454,34.33948],[133.45365,34.34099],[133.45351,34.34194],[133.45299,34.34231],[133.45189,34.34248],[133.45143,34.34215],[133.45055,34.34213],[133.44877,34.34293],[133.44848,34.34278],[133.44856,34.34241],[133.44815,34.34199],[133.44784,34.34217],[133.44584,34.34375],[133.44578,34.34452],[133.44454,34.3457],[133.44482,34.34614],[133.44467,34.34644],[133.44399,34.34654],[133.44258,34.34737],[133.44183,34.34932],[133.44055,34.35051],[133.43952,34.35048],[133.43915,34.35091],[133.43813,34.35109],[133.43722,34.35155],[133.43545,34.35165],[133.43503,34.35144],[133.43456,34.35165],[133.43409,34.35102],[133.43426,34.35053],[133.43353,34.35023],[133.43192,34.35054],[133.43196,34.35026],[133.43305,34.34978],[133.43239,34.35003],[133.43058,34.34977],[133.43037,34.34939],[133.42779,34.34936],[133.42771,34.34984],[133.43017,34.34991],[133.43034,34.35019],[133.42965,34.35063],[133.42713,34.35032],[133.42698,34.35005],[133.42734,34.34774]],[[133.42591,34.35238],[133.42668,34.35209],[133.42687,34.35163],[133.42787,34.35159],[133.42793,34.35234],[133.42757,34.3529],[133.42667,34.35349],[133.42587,34.35333],[133.42567,34.3529],[133.42591,34.35238]],[[133.46766,34.35394],[133.46814,34.35444],[133.46829,34.35497],[133.46808,34.35539],[133.46689,34.35551],[133.46742,34.35666],[133.46747,34.35727],[133.46719,34.35753],[133.46666,34.35761],[133.46582,34.357],[133.46472,34.35678],[133.46448,34.35589],[133.46504,34.35446],[133.46672,34.35378],[133.46766,34.35394]],[[133.42652,34.36514],[133.4269,34.36544],[133.42662,34.36614],[133.42626,34.36611],[133.4259,34.36575],[133.42609,34.36522],[133.42652,34.36514]],[[133.40602,34.37826],[133.40652,34.37939],[133.40695,34.37959],[133.40693,34.37995],[133.40554,34.3797],[133.40511,34.37885],[133.40528,34.37821],[133.40602,34.37826]],[[133.3898,34.38014],[133.38999,34.37936],[133.39089,34.37942],[133.39101,34.38165],[133.39081,34.38194],[133.38942,34.38156],[133.38856,34.3808],[133.38885,34.38033],[133.3898,34.38014]],[[133.38657,34.38221],[133.38672,34.38363],[133.386,34.38381],[133.38581,34.38328],[133.38598,34.38228],[133.38657,34.38221]],[[133.38775,34.38328],[133.3877,34.38294],[133.38799,34.38272],[133.38842,34.38279],[133.38884,34.3834],[133.38983,34.38298],[133.39054,34.38327],[133.39133,34.38306],[133.39127,34.38261],[133.39172,34.38221],[133.39361,34.38187],[133.39353,34.38107],[133.39459,34.38011],[133.39509,34.38],[133.39449,34.37942],[133.39486,34.37861],[133.39522,34.37861],[133.39589,34.37909],[133.39566,34.37998],[133.39645,34.38008],[133.39724,34.37989],[133.39761,34.37918],[133.39712,34.37862],[133.39732,34.37793],[133.39811,34.37741],[133.39843,34.37752],[133.39835,34.37711],[133.39856,34.37695],[133.39931,34.37762],[133.39955,34.37817],[133.40047,34.37808],[133.40097,34.37774],[133.40144,34.37793],[133.40164,34.37837],[133.40119,34.37978],[133.4013,34.38021],[133.40171,34.38052],[133.40236,34.38044],[133.40343,34.38111],[133.40429,34.38277],[133.40352,34.38536],[133.40291,34.38537],[133.40266,34.38438],[133.40206,34.38438],[133.4014,34.38472],[133.40077,34.38421],[133.4001,34.3845],[133.39951,34.38508],[133.39943,34.38645],[133.39894,34.38666],[133.39864,34.38738],[133.39956,34.38825],[133.39953,34.38872],[133.39918,34.38888],[133.39799,34.38808],[133.39674,34.38848],[133.39604,34.38792],[133.39544,34.38809],[133.39521,34.38854],[133.39486,34.38868],[133.39425,34.38854],[133.3939,34.38807],[133.39306,34.38823],[133.3925,34.38794],[133.39209,34.38819],[133.39196,34.3887],[133.39159,34.38875],[133.39084,34.38804],[133.39025,34.3868],[133.39038,34.3864],[133.39088,34.38611],[133.39083,34.38566],[133.38961,34.38511],[133.38969,34.38479],[133.39017,34.38459],[133.38942,34.38457],[133.38929,34.3851],[133.38859,34.38534],[133.3882,34.38513],[133.38818,34.38475],[133.38732,34.38415],[133.38728,34.38355],[133.38775,34.38328]]]}}]}